{"fetched_at":"2026-03-30T06:02:59Z","count":15439,"tles":[{"name":"STARLINK-31178","line1":"1 59025U 24038C   26087.83111692 -.00004215  00000+0 -14363-3 0  9995","line2":"2 59025  42.9989 279.0872 0001044 254.9936 105.0801 15.27603343117576","category":"Starlink"}]}